#dP2025  1 15  6  0  0.00000000      96 __u+U IGS20 EXT  IAC
## 2349 280800.00000000   900.00000000 60690 0.2500000000000
+   52   G01G02G03G04G05G06G07G08G09G10G11G12G13G14G15G16G17
+        G18G19G20G21G22G23G24G25G26G27G28G29G30G31G32R01R02
+        R03R04R05R07R08R09R11R12R14R15R16R17R18R19R20R21R22
+        R24  0  0  0  0  0  0  0  0  0  0  0  0  0  0  0  0
+          0  0  0  0  0  0  0  0  0  0  0  0  0  0  0  0  0
++         9  8  9  9  8  8  9  9  9  8  9  9  8  9  9  9 10
++         8  9  8  8  9  9  8  9  9  9  9  9  9  8  8  8  9
++         9  9  9  9  9  9  9  8  9  9 10  9  9 10  8  8  9
++         9  0  0  0  0  0  0  0  0  0  0  0  0  0  0  0  0
++         0  0  0  0  0  0  0  0  0  0  0  0  0  0  0  0  0
%c M  cc GPS ccc cccc cccc cccc cccc ccccc ccccc ccccc ccccc
%c cc cc ccc ccc cccc cccc cccc cccc ccccc ccccc ccccc ccccc
%f  0.0000000  0.000000000  0.00000000000  0.000000000000000
%f  0.0000000  0.000000000  0.00000000000  0.000000000000000
%i    0    0    0    0      0      0      0      0         0
%i    0    0    0    0      0      0      0      0         0
/* IAC                                ULTRA-RAPID PREDICTION
/* S/V CLOCKS ARE ALIGNED TO GNSS TIME                      
/* G:C1WC2W R:C1PC2P E:C1XC5X C:C2IC6I J:C1CC2S             
/* PCV:IGS20_2317 OL/AL:FES2004  NONE     YN ORB:CoN CLK:CoN
*  2025 01 16  2 30  0.00000000
PG01  18790.519820  15520.970863 -10562.056653     51.862738
PG02  18898.183914  13327.712333 -12946.685133   -266.822447
PG03  12124.827337  20736.133646  11293.848905    646.835666
PG04  12117.659833   9352.755005  21736.815571    512.610484
PG05  -5372.237772 -25842.098350   2455.341016   -199.147856
PG06  16121.377943  -8199.237958  19569.409724   -121.444088
PG07  25825.158529   6847.449759  -1624.698922    -13.487123
PG08   2631.007414  17427.995271 -19867.526944    461.735128
PG09  18652.125026    256.949430  18842.842020    530.365569
PG10 -11522.274296  11374.508124 -20743.047903   -278.621951
PG11   3619.431220 -14746.249287  21834.274105   -751.568473
PG12  -9710.676343 -23032.199302   8758.682399   -564.705253
PG13   7768.773888 -19151.980635 -16776.647819    693.610285
PG14  14146.253460  -7376.189325 -21159.644475    580.782157
PG15  -5298.199683 -17095.885842 -20108.141685    252.144040
PG16  -1433.736081  25279.280436   6848.752004    -76.812751
PG17  22513.619573 -12407.967774  -6686.926965    472.266030
PG18 -25731.759562  -5107.406439  -4841.475830   -657.707190
PG19  19847.320640 -17062.901109   2630.310111    586.706037
PG20   1513.241821 -22399.595861  14380.046232    367.040160
PG21  13260.612151  15248.850328 -17409.792310    101.120873
PG22  10706.620884 -15937.572524 -18100.583174    -92.510227
PG23 -15601.956353  -4557.857219 -21009.248927    404.706564
PG24 -16589.262107 -14872.678177 -15218.123303   -463.478202
PG25 -15779.430997 -12179.011089  17319.784986    496.675897
PG26  -6632.214306  19500.446205  16369.848401    -50.013232
PG27  -8600.385600  21123.671119 -13543.084773    -32.993912
PG28 -17700.603031   8136.243003  18043.917120   -536.453115
PG29 -18685.372770  -1713.613964  18801.402073   -546.728723
PG30  23205.157093  -2660.422178 -12740.475800   -238.195469
PG31  -9303.853728  12707.393377  21180.194638   -217.780419
PG32 -20507.568525  16384.376803  -3025.686373   -540.802132
PR01  -6607.859761 -10557.742326 -22254.964828    111.394223
PR02 -13978.379557   6367.579551 -20293.638106    -38.435357
PR03 -13836.866385  20383.858531  -6436.030248    114.993747
PR04  -6458.458767  22413.658371  10334.737230    272.699008
PR05   4520.776271  12702.930190  21660.756655    143.806590
PR07  13853.158137 -20533.765812   6253.651099     98.967122
PR08   6119.601484 -22461.956725 -10408.445713     -6.375368
PR09  15906.921173   6371.097721 -18915.068760    232.342052
PR11  -4877.185533 -20164.631384 -14824.322944     -1.091443
PR12 -15398.140960 -19922.976246   4141.992256     49.659057
PR14  -6695.738641   9777.580762  22594.082161     27.597537
PR15   5977.173390  20915.823592  13338.011458     72.151272
PR16  15380.436740  19981.582715  -3971.186688     32.496322
PR17 -18327.628656   8079.579143 -15805.530928    157.864336
PR18  -2072.133420  10555.234068 -23105.565722    182.123356
PR19  13313.952753   8907.668714 -19845.274697   -305.667143
PR20  25465.690243    805.979311  -1630.124511   -124.593990
PR21  19310.633007  -7452.993916  14895.359282   -168.542524
PR22    924.775993 -10958.063098  23046.041376    -56.174691
PR24 -25480.710636    636.580125   1184.305619    -88.370507
*  2025 01 16  2 45  0.00000000
PG01  17450.872520  15264.125463 -12960.223386     51.890048
PG02  17232.769099  13190.888758 -15113.234363   -266.814182
PG03  12257.720784  21898.586529   8706.633839    646.842285
PG04  10285.926989  11037.569481  21876.777234    512.615758
PG05  -5025.240534 -25464.794616   5296.527693   -199.148917
PG06  18136.561884  -7514.055043  18024.420808   -121.468116
PG07  25837.710127   7111.980597   1183.998410    -13.486858
PG08   1021.246529  18920.315481 -18559.226337    461.742118
PG09  17172.762583   1947.475703  20096.305361    530.378990
PG10 -12193.654726   8998.361804 -21531.949491   -278.636284
PG11   5982.803753 -13970.225722  21819.727070   -751.567502
PG12  -9633.954865 -23944.708612   6078.394834   -564.707292
PG13   9292.430470 -20071.222002 -14758.043085    693.611383
PG14  14752.282307  -4995.641562 -21460.635275    580.788591
PG15  -3919.248685 -18740.809722 -18876.251214    252.148026
PG16  -1872.751173  24346.861953   9513.562595    -76.804251
PG17  21932.058495 -11611.884751  -9339.460602    472.250228
PG18 -26051.556584  -5408.843180  -2007.875846   -657.705935
PG19  20139.844286 -16940.721850   -255.743565    586.710120
PG20   2408.133026 -20893.819671  16384.959463    367.039895
PG21  11164.764393  14970.196128 -18919.058038    101.121581
PG22  11185.683780 -13772.437538 -19477.555010    -92.512016
PG23 -16187.411791  -6825.847637 -19946.984401    404.713305
PG24 -14820.100291 -14759.083287 -17063.136315   -463.474511
PG25 -16127.586994 -14090.238127  15515.973675    496.675374
PG26  -7519.054540  17669.435008  18002.536317    -50.027110
PG27  -9745.416700  21939.062377 -11175.193842    -32.993430
PG28 -19574.151641   7518.523757  16293.468586   -536.461711
PG29 -17048.606593  -3230.128187  20098.289704   -546.725526
PG30  24429.943845  -2055.383451 -10398.023037   -238.187858
PG31 -11618.077711  11953.860620  20504.805984   -217.779641
PG32 -20312.176114  15822.156496  -5839.889065   -540.795804
PR01  -5580.679107 -13036.383032 -21196.676501    111.395380
PR02 -12778.235506   4057.866081 -21636.496449    -38.435113
PR03 -13275.345190  19554.023507  -9463.957081    114.994274
PR04  -6780.844193  23466.682048   7349.225145    272.700469
PR05   3450.931601  15061.632797  20300.395570    143.807043
PR07  13297.910394 -19743.641863   9284.411416     98.967782
PR08   6453.476550 -23532.169954  -7439.888934     -6.375518
PR09  17278.710125   8106.519850 -16954.097199    232.344015
PR11  -3819.253427 -18495.619672 -17131.920736     -1.094302
PR12 -15685.114013 -20103.359482    958.467961     49.659476
PR14  -8318.581755   7488.286892  22925.586691     27.597557
PR15   5027.471389  19388.403581  15809.795763     72.150909
PR16  15674.639509  20132.548017   -776.425042     32.496544
PR17 -20109.273376   8363.797029 -13297.299298    157.867227
PR18  -4891.905712  10766.397783 -22573.291402    182.125082
PR19  10765.518918   8889.045848 -21342.753818   -305.668364
PR20  25058.146082    600.042958  -4839.990751   -124.594442
PR21  20974.394657  -7724.946291  12273.743003   -168.545455
PR22   3736.030976 -11095.574924  22693.938724    -56.176453
PR24 -25129.872174    758.038034   4372.839919    -88.371975
EOF
